NORAD_CAT_ID,OBJECT_NAME,OBJECT_TYPE,EPOCH,MEAN_MOTION,ECCENTRICITY,INCLINATION,RA_OF_ASC_NODE,ARG_OF_PERICENTER,MEAN_ANOMALY,BSTAR,MEAN_MOTION_DOT,MEAN_MOTION_DDOT,TLE_LINE0,TLE_LINE1,TLE_LINE2,SEMIMAJOR_AXIS,PERIOD,APOGEE,PERIGEE,DECAYED
50844.0,STARLINK-3326,PAYLOAD,2022-04-28 06:00:00,15.0884273,0.0001961,53.2189,35.3094,42.1799,112.6165,0.0024006,0.00038128,0.0,0 STARLINK-3326,1 50844U 22001AT  22118.25001157  .00038128  00000-0  24006-2 0  9997,2 50844  53.2189  35.3094 0001961  42.1799 112.6165 15.08842730 18463,6917.871999999999,95.437,541.094,538.38,0.0
50844.0,STARLINK-3326,PAYLOAD,2022-04-28 14:00:01,15.088382500000002,0.0001808,53.219,33.8113,47.5227,118.9013,0.0020057,0.00031776,0.0,0 STARLINK-3326,1 50844U 22001AT  22118.58334491  .00031776  00000-0  20057-2 0  9997,2 50844  53.2190  33.8113 0001808  47.5227 118.9013 15.08838250  3608,6917.886,95.438,541.001,538.5,0.0
50844.0,STARLINK-3326,PAYLOAD,2022-04-28 20:00:01,15.08871397,0.0001845,53.2192,32.6894,49.7858,35.3352,-0.00177,-0.00028372,0.0,0 STARLINK-3326,1 50844U 22001AT  22118.83334491 -.00028372  00000-0 -17700-2 0  9996,2 50844  53.2192  32.6894 0001845  49.7858  35.3352 15.08871397 18555,6917.784000000002,95.436,540.9259999999998,538.373,0.0
50844.0,STARLINK-3326,PAYLOAD,2022-04-29 14:00:01,15.08807175,0.0001881,53.2193,29.3225,47.7488,153.4941,0.0018681,0.00029541,0.0,0 STARLINK-3326,1 50844U 22001AT  22119.58334491  .00029541  00000-0  18681-2 0  9995,2 50844  53.2193  29.3225 0001881  47.7488 153.4941 15.08807175  3603,6917.981,95.44,541.1469999999998,538.544,0.0
50844.0,STARLINK-3326,PAYLOAD,2022-04-29 22:00:00,15.088223499999998,0.0002065,53.2196,27.8273,49.1012,163.7104,-0.00070416,-0.00011472,0.0,0 STARLINK-3326,1 50844U 22001AT  22119.91667824 -.00011472  00000-0 -70416-3 0  9992,2 50844  53.2196  27.8273 0002065  49.1012 163.7104 15.08822350 18711,6917.934,95.439,541.2280000000002,538.371,0.0
50844.0,STARLINK-3326,PAYLOAD,2022-04-30 14:00:01,15.08791589,0.0001967,53.2198,24.8339,48.2383,187.7289,0.0039768,0.00063489,0.0,0 STARLINK-3326,1 50844U 22001AT  22120.58334491  .00063489  00000-0  39768-2 0  9995,2 50844  53.2198  24.8339 0001967  48.2383 187.7289 15.08791589  3560,6918.028,95.441,541.254,538.533,0.0
50844.0,STARLINK-3326,PAYLOAD,2022-04-30 22:00:00,15.08851671,0.0002068,53.2199,23.3389,47.2812,200.2433,-0.0026963,-0.00042959,0.0,0 STARLINK-3326,1 50844U 22001AT  22120.91667824 -.00042959  00000-0 -26963-2 0  9995,2 50844  53.2199  23.3389 0002068  47.2812 200.2433 15.08851671 18870,6917.845,95.437,541.14,538.279,0.0
50844.0,STARLINK-3326,PAYLOAD,2022-05-01 14:00:01,15.08819812,0.0001881,53.22,20.3453,47.3291,223.3691,0.0014646,0.00023085,0.0,0 STARLINK-3326,1 50844U 22001AT  22121.58334491  .00023085  00000-0  14646-2 0  9992,2 50844  53.2200  20.3453 0001881  47.3291 223.3691 15.08819812 18970,6917.941999999999,95.439,541.1080000000002,538.506,0.0
50844.0,STARLINK-3326,PAYLOAD,2022-05-01 22:00:01,15.0882328,0.0001974,53.2201,18.8503,44.6381,237.6958,-0.00080577,-0.00013083,0.0,0 STARLINK-3326,1 50844U 22001AT  22121.91668981 -.00013083  00000-0 -80577-3 0  9999,2 50844  53.2201  18.8503 0001974  44.6381 237.6958 15.08823280  3604,6917.931,95.439,541.1619999999998,538.431,0.0
50844.0,STARLINK-3326,PAYLOAD,2022-05-02 06:00:00,15.08826795,0.0002048,53.2197,17.3545,41.5031,252.3373,0.00074245,0.00011544,0.0,0 STARLINK-3326,1 50844U 22001AT  22122.25001157  .00011544  00000-0  74245-3 0  9996,2 50844  53.2197  17.3545 0002048  41.5031 252.3373 15.08826795 19076,6917.920999999999,95.438,541.203,538.369,0.0
50844.0,STARLINK-3326,PAYLOAD,2022-05-02 14:00:01,15.08811422,0.0001857,53.2199,15.8567,47.7621,257.6702,0.003755,0.00059935,0.0,0 STARLINK-3326,1 50844U 22001AT  22122.58334491  .00059935  00000-0  37550-2 0  9995,2 50844  53.2199  15.8567 0001857  47.7621 257.6702 15.08811422  3590,6917.968000000003,95.439,541.117,538.548,0.0
50844.0,STARLINK-3326,PAYLOAD,2022-05-02 22:00:01,15.08857307,0.0001972,53.2199,14.3617,45.5745,271.5042,-0.00083694,-0.0001359,0.0,0 STARLINK-3326,1 50844U 22001AT  22122.91668981 -.00013590  00000-0 -83694-3 0  9996,2 50844  53.2199  14.3617 0001972  45.5745 271.5042 15.08857307  3618,6917.8269999999975,95.436,541.057,538.328,0.0
50844.0,STARLINK-3326,PAYLOAD,2022-05-03 14:00:01,15.08813574,0.0001764,53.2194,11.3678,47.7016,292.5326,0.0037088,0.00059191,0.0,0 STARLINK-3326,1 50844U 22001AT  22123.58334491  .00059191  00000-0  37088-2 0  9996,2 50844  53.2194  11.3678 0001764  47.7016 292.5326 15.08813574 19276,6917.9609999999975,95.439,541.0459999999998,538.606,0.0
50844.0,STARLINK-3326,PAYLOAD,2022-05-03 22:00:00,15.08815628,0.0002071,53.2193,9.8731,41.6575,310.1458,-0.00074293,-0.00012085,0.0,0 STARLINK-3326,1 50844U 22001AT  22123.91667824 -.00012085  00000-0 -74293-3 0  9995,2 50844  53.2193   9.8731 0002071  41.6575 310.1458 15.08815628 19323,6917.955,95.439,541.253,538.387,0.0
50844.0,STARLINK-3326,PAYLOAD,2022-05-04 06:00:02,15.08855447,0.0002046,53.2181,8.3773,37.1829,326.2601,0.00019744,2.857e-05,0.0,0 STARLINK-3326,1 50844U 22001AT  22124.25002315  .00002857  00000-0  19744-3 0  9995,2 50844  53.2181   8.3773 0002046  37.1829 326.2601 15.08855447 19370,6917.833000000001,95.437,541.114,538.283,0.0
50844.0,STARLINK-3326,PAYLOAD,2022-05-04 14:00:01,15.0887087,0.0001925,53.2177,6.8798,42.3726,332.6229,-0.0019179,-0.00030708,0.0,0 STARLINK-3326,1 50844U 22001AT  22124.58334491 -.00030708  00000-0 -19179-2 0  9993,2 50844  53.2177   6.8798 0001925  42.3726 332.6229 15.08870870  3607,6917.786,95.436,540.9830000000002,538.319,0.0
50844.0,STARLINK-3326,PAYLOAD,2022-05-04 20:00:01,15.08851149,0.0001861,53.219,5.7578,39.471,254.2839,-0.00098633,-0.00015956,0.0,0 STARLINK-3326,1 50844U 22001AT  22124.83335648 -.00015956  00000-0 -98633-3 0  9997,2 50844  53.2190   5.7578 0001861  39.4710 254.2839 15.08851149 19460,6917.846,95.437,540.999,538.424,0.0
50844.0,STARLINK-3326,PAYLOAD,2022-05-04 22:00:01,15.08846945,0.0001941,53.2189,5.3842,38.34,348.3164,-0.00060566,-9.916e-05,0.0,0 STARLINK-3326,1 50844U 22001AT  22124.91668981 -.00009916  00000-0 -60566-3 0  9998,2 50844  53.2189   5.3842 0001941  38.3400 348.3164 15.08846945  3615,6917.859,95.437,541.067,538.381,0.0
50844.0,STARLINK-3326,PAYLOAD,2022-05-05 14:00:01,15.08852561,0.0001893,53.2181,2.3899,45.6601,4.1474,0.0013368,0.00021059,0.0,0 STARLINK-3326,1 50844U 22001AT  22125.58334491  .00021059  00000-0  13368-2 0  9995,2 50844  53.2181   2.3899 0001893  45.6601   4.1474 15.08852561  3573,6917.842,95.437,541.0169999999998,538.3969999999998,0.0
50844.0,STARLINK-3326,PAYLOAD,2022-05-05 16:00:00,15.08892248,0.0001947,53.2182,2.016,47.0398,95.6621,-0.0044584,-0.0007065,0.0,0 STARLINK-3326,1 50844U 22001AT  22125.66667824 -.00070650  00000-0 -44584-2 0  9990,2 50844  53.2182   2.0160 0001947  47.0398  95.6621 15.08892248 19584,6917.721,95.434,540.933,538.239,0.0
50844.0,STARLINK-3326,PAYLOAD,2022-05-05 22:00:00,15.08852725,0.0002069,53.2184,0.8952,43.0006,18.429,-0.0028088,-0.0004473,0.0,0 STARLINK-3326,1 50844U 22001AT  22125.91667824 -.00044730  00000-0 -28088-2 0  9999,2 50844  53.2184   0.8952 0002069  43.0006  18.4290 15.08852725  3572,6917.840999999999,95.437,541.138,538.275,0.0
50844.0,STARLINK-3326,PAYLOAD,2022-05-06 08:00:01,15.08848937,0.0002,53.2185,359.0238,42.1896,123.7241,-0.0014307,-0.00022992,0.0,0 STARLINK-3326,1 50844U 22001AT  22126.33334491 -.00022992  00000-0 -14307-2 0  9992,2 50844  53.2185 359.0238 0002000  42.1896 123.7241 15.08848937 19686,6917.853,95.437,541.102,538.335,0.0
50844.0,STARLINK-3326,PAYLOAD,2022-05-06 14:00:01,15.08836068,0.0001975,53.2185,357.9006,46.9261,37.687,2.9119e-05,1.75e-06,0.0,0 STARLINK-3326,1 50844U 22001AT  22126.58334491  .00000175  00000-0  29119-4 0  9995,2 50844  53.2185 357.9006 0001975  46.9261  37.6870 15.08836068  3613,6917.892,95.438,541.124,538.391,0.0
50844.0,STARLINK-3326,PAYLOAD,2022-05-07 06:00:02,15.08846234,0.0002204,53.2186,354.9093,43.9081,63.9335,-0.0011630999999999,-0.00018755,0.0,0 STARLINK-3326,1 50844U 22001AT  22127.25002315 -.00018755  00000-0 -11631-2 0  9990,2 50844  53.2186 354.9093 0002204  43.9081  63.9335 15.08846234 19824,6917.861,95.437,541.251,538.202,0.0
50844.0,STARLINK-3326,PAYLOAD,2022-05-07 14:00:01,15.088362699999998,0.0002089,53.2189,353.4116,49.0182,70.357,0.0015405999999999,0.00024313,0.0,0 STARLINK-3326,1 50844U 22001AT  22127.58334491  .00024313  00000-0  15406-2 0  9998,2 50844  53.2189 353.4116 0002089  49.0182  70.3570 15.08836270  3608,6917.892,95.438,541.202,538.312,0.0
50844.0,STARLINK-3326,PAYLOAD,2022-05-07 22:00:00,15.08838727,0.0002232,53.2191,351.9172,44.5572,86.4228,-0.00124,-0.00019969,0.0,0 STARLINK-3326,1 50844U 22001AT  22127.91667824 -.00019969  00000-0 -12400-2 0  9998,2 50844  53.2191 351.9172 0002232  44.5572  86.4228 15.08838727 19928,6917.884,95.438,541.293,538.205,0.0
50844.0,STARLINK-3326,PAYLOAD,2022-05-08 14:00:01,15.08838307,0.0002078,53.2196,348.9228,48.6094,105.5415,0.00092271,0.00014427,0.0,0 STARLINK-3326,1 50844U 22001AT  22128.58334491  .00014427  00000-0  92271-3 0  9990,2 50844  53.2196 348.9228 0002078  48.6094 105.5415 15.08838307 20021,6917.886,95.438,541.188,538.313,0.0
50844.0,STARLINK-3326,PAYLOAD,2022-05-08 22:00:00,15.08832513,0.0002211,53.2196,347.4283,43.3253,122.4332,-0.00076775,-0.00012484,0.0,0 STARLINK-3326,1 50844U 22001AT  22128.91667824 -.00012484  00000-0 -76775-3 0  9990,2 50844  53.2196 347.4283 0002211  43.3253 122.4332 15.08832513  3608,6917.903,95.438,541.298,538.239,0.0
50844.0,STARLINK-3326,PAYLOAD,2022-05-09 06:00:00,15.08846846,0.0002129,53.2195,345.9313,43.2555,134.0786,-0.0015645,-0.00025106,0.0,0 STARLINK-3326,1 50844U 22001AT  22129.25001157 -.00025106  00000-0 -15645-2 0  9992,2 50844  53.2195 345.9313 0002129  43.2555 134.0786 15.08846846 20128,6917.859,95.437,541.197,538.252,0.0
